{
  "constituency": "Jashore-2",
  "district": "Jashore",
  "upazilas": [
    {
      "name": "Jhikargachha",
      "bn_name": "ঝিকরগাছা",
      "unions": [
        { "name": "Ganganandapur", "bn_name": "গঙ্গানন্দপুর", "villages": ["আটলিয়া", "শ্রীচন্দপুর", "বালিয়া", "ব্যঙদহ", "বিশহরি", "ছুটিপুর", "দত্তপাড়া", "গঙ্গানন্দপুর", "গোউরসুটি", "গোয়ালহাটি", "গুলবাগপুর", "জিউলিগাছি", "কাগমারী", "কৃষ্ণচন্দ্রপুর", "মাউসা", "নবগ্রাম"] },
        { "name": "Magura", "bn_name": "মাগুরা", "villages": ["আঙ্গারপাড়া", "াসিংড়ী", "বহিরামপুর", "বড়কুলি", "চাঁন্দা", "ছোট কুলি", "ডহর-মাগুরা", "ঘোড়দহ", "জয়রামপুর", "কায়েমকোলা", "মাগুরা", "মোহাম্মদপুর", "মনোহরপুর", "মিশ্রিদেয়াড়া", "ফুলবাড়ি", "দৌলতপুর", "সন্তোষনগর"] },
        { "name": "Shimulia", "bn_name": "শিমুলিয়া", "villages": ["আজমপুর", "আন্দোলপোতা", "দোসতینا", "গঙ্গাধরপুর", "জামালপুর", "খাসখালি", "মধুখালী", "খুদরা মাটিকুমড়া", "পাল্লা", "রাঁধানগর", "সাগরপুর", "শিয়ালঘোনা", "শিমুলিয়া", "গোপিনাথপুর", "শ্রীরামকাটি", "উত্তর রাজাপুর"] },
        { "name": "Gadkhali", "bn_name": "গদখালী", "villages": ["বামনআলী", "বারবাকপুর", "বেনেয়ালী", "বোধখানা", "ইউছুফপুর", "ফতেপুর", "গদখালী", "হাজিরালী", "জাফরনগর", "কামার পাড়া", "পটুয়া পাড়া", "সদিরালী"] },
        { "name": "Panisara", "bn_name": "পানিসারা", "villages": ["বর্ণি", "বেজিতলা", "চাঁপাতলা", "গোবরাপুর", "কাউরিয়া", "কৃষ্ণচন্দ্রপুর", "কুলিয়া", "মোহিনীকাটি", "নারাঙ্গালী", "নীলকান্তনগর", "পানিসারা", "পুরন্দরপুর", "রঘুনাথ নগর", "রাজাপুর", "সাদিপুর", "টাওরা"] },
        { "name": "Jhikargachha Sadar", "bn_name": "ঝিকরগাছা সদর", "villages": ["বেড়েলা", "চাঁপাতলা", "দোস্তপুর", "ফারাসাতপুর", "ঝাউদিয়া", "হাড়িয়াদেয়াড়া", "জয়কৃষ্ণপুর", "ঝিকরগাছা", "কৃত্তিপুর", "কৃষ্ণনগর", "লাউজানী", "লক্ষীপুর", "নওদাপাড়া", "মল্লিকপুর", "মীর্জাপুর", "চন্দরপুর", "কাশিপুর", "মোবারকপুর", "পায়রাডাঙ্গা", "পদ্মপুকুর", "সাগরপুর", "শ্রীরামপুর"] },
        { "name": "Navaran", "bn_name": "নাভারণ", "villages": ["আমিনী", "বাদেনাভারণ", "বায়সা", "চাঁনপুর", "গুলনগর", "হাড়িয়া", "নায়ড়া", "কলাগাছি", "কালিয়ানী", "করিমালী", "মানিকালী", "নাভারণ", "বেলেমাট", "ঢাকাপাড়া", "ইসলামপুর", "নিত্যানন্দপুর", "পাঁচপোতা", "কুন্দিপুর", "বাঘডাঙ্গী", "বাকি", "রুপচন্দপুর", "শরীফপুর", "উত্তর দেওলী"] },
        { "name": "Nirbaskhola", "bn_name": "নির্বাসখোলা", "villages": ["আসিংড়ী", "বল্লা", "বাউসা", "বেড়ারুপানী", "দিঘড়ী", "কানারালী", "খারুসা", "মীর্জাপুর", "নন্দিডুমুরিয়া", "নোয়ালী", "নির্বাসখোলা", "নিশ্চিন্তপুর", "রাজাডুমুরিয়া", "সাদিপুর", "শিওরদাহ"] },
        { "name": "Hajirbagh", "bn_name": "হাজিরবাগ", "villages": ["বরুণহাল", "বিষ্ণুপুর", "দেউলি", "ধল্লা", "হাড়িখালী", "পাঁচপোতা", "হাজিরবাগ", "ইস্তা", "যুগিহুদা", "কোমরচান্দা", "কুল্লা", "মহেষপাড়া", "মাটিকোমরা", "মুকুন্দপুর", "রায়পটল", "সোনাকুড়"] },
        { "name": "Shankarpur", "bn_name": "শংকরপুর", "villages": ["বাকুলিয়া", "বাকুড়া", "জগদানন্দকাটি", "খাটবাড়িয়া", "কুলবাড়িয়া", "রাজবাড়িয়া", "কুমড়ী", "নায়ড়া", "বড়পুদাউলিয়া", "ছোট পুদাউলিয়া", "হরিদ্রাপোতা", "শংকরপুর", "সেকেন্দারকাটি", "উলাকোল"] },
        { "name": "Bakra", "bn_name": "বাঁকড়া", "villages": ["আলীপুর", "বাঁকড়া", "দিকদানা", "খলসি", "খোশালনগর", "বেলেডাঙ্গা", "মাটশিয়া", "মুকুন্দপুর", "শিমুলিয়া", "শুকুরখোলা", "উজ্জলপুর"] }
      ]
    },
    {
      "name": "Chougachha",
      "bn_name": "চৌগাছা",
      "unions": [
        { "name": "Phulsara", "bn_name": "ফুলসারা", "villages": ["ফুলসারা", "সলুয়া", "পুড়াপাড়া", "সৈয়দপুর", "বিষ্ণুপুর", "দুর্গাপুর", "কয়ারপাড়া", "নলপোতা", "ভোগদহ", "রামপুর", "সাতগাতী"] },
        { "name": "Pashapole", "bn_name": "পাশাপোল", "villages": ["পাশাপোল", "তিলকপুর", "বাড়িয়ালী", "দশপাকিয়া", "রঘুনাথপুর", "আমঝুপি", "মাঝালী", "ধলদা", "দশানি", "মালিগাতি", "রংপুর"] },
        { "name": "Singhajhuli", "bn_name": "সিংহঝুলী", "villages": ["সিংহঝুলী", "গরীবপুর", "মশিয়ূরনগর", "জগন্নাথপুর", "মদনপুর", "খড়িঞ্চা", "চাঁদপাড়া", "গোবিন্দপুর", "তেঘরী", "গয়ড়া"] },
        { "name": "Dhuliani", "bn_name": "ধুলিয়ানী", "villages": ["ধুলিয়ানী", "শাহজাদপুর", "ছোট ধুলিয়ানী", "কাবিলপুর", "ঝিনাইকুন্ডু", "উজ্জ্বলপুর", "ভাটপাড়া", "সরুপপুর", "রামচন্দ্রপুর", "ফতেপুর", "চাদপুর"] },
        { "name": "Chougachha Sadar", "bn_name": "চৌগাছা সদর", "villages": ["দিঘলসিংহা", "কয়ারপাড়া", "ঈসাপুর", "সালেহা", "চকলা", "নুরুল্লাহপুর", "হাকিমপুর (আংশিক)", "মুক্তদাহ", "উজ্জ্বলপুর"] },
        { "name": "Jagadishpur", "bn_name": "জগদীশপুর", "villages": ["জগদীশপুর", "আড়কান্দি", "মাড়ুয়া", "মিথাপুর", "মাধবপুর", "কাদেরপুর", "শিলপুকুর", "স্বল্পপাথুরিয়া", "হিজলী"] },
        { "name": "Patibila", "bn_name": "পাতিবিলা", "villages": ["পাতিবিলা", "নিয়ামতপুর", "তেঘরী", "হায়াতপুর", "চাকলা", "তেতুলবেড়িয়া", "কন্দর্পপুর", "ইছাপুর", "রোস্তমপুর", "শোভানপুর", "ভবানীপুর"] },
        { "name": "Hakimpur", "bn_name": "হাকিমপুর", "villages": ["হাকিমপুর", "তালি খড়িঞ্চা", "দেবীপুর", "বিষ্ণুপুর", "সাকরাইল", "মুরাদপুর", "ইছাপুর", "ফতেপুর", "জামালপুর"] },
        { "name": "Swarupdah", "bn_name": "স্বরূপদাহ", "villages": ["স্বরূপদাহ", "তালের দাড়ি", "মাধবপুর", "গিধরপুর", "রামকৃষ্ণপুর", "মাশিলা", "বড়খানপুর", "ছোটখানপুর", "কয়া", "চাকলা", "হিজলী"] },
        { "name": "Narayanpur", "bn_name": "নারায়নপুর", "villages": ["নারায়নপুর", "বুন্দলিদাহ", "পেটভরা", "চাঁদপুর", "চাকলা", "বহিলাপোতা", "বহেড়গাছি", "হরিণগাছি", "সيندুরগাছি", "মান্দারবাড়িয়া"] },
        { "name": "Sukhpukuria", "bn_name": "সুখপুকুরিয়া", "villages": ["সুখপুকুরিয়া", "কুলিয়া", "বল্লভপুর", "ভাদু", "রামকান্তপুর", "গদাধরপুর", "ডাকাতিয়া", "আন্দুলিয়া", "নগরবর্ণি"] },
        { "name": "Chougachha Municipality", "bn_name": "চৌগাছা পৌরসভা", "villages": ["চৌগাছা সদর", "উত্তর কাসিপুর", "দক্ষিণ কাসিপুর", "চরপাড়া", "হাসপাতাল পাড়া", "মডেল থানা পাড়া", "ডিভাইন পাড়া", "হাজরাখানা", "বেলেমাঠ"] }
      ]
    }
  ]
}
